NORAD_CAT_ID,OBJECT_NAME,OBJECT_TYPE,EPOCH,MEAN_MOTION,ECCENTRICITY,INCLINATION,RA_OF_ASC_NODE,ARG_OF_PERICENTER,MEAN_ANOMALY,BSTAR,MEAN_MOTION_DOT,MEAN_MOTION_DDOT,TLE_LINE0,TLE_LINE1,TLE_LINE2,SEMIMAJOR_AXIS,PERIOD,APOGEE,PERIGEE,DECAYED
53009.0,STARLINK-4277,PAYLOAD,2022-09-30 16:00:00,15.20973565,0.0001671,53.2168,322.8967,37.3497,238.5162,-0.052527,-0.01077722,0.0,0 STARLINK-4277,1 53009U 22076Z   22273.66667824 -.01077722  00000-0 -52527-1 0  9995,2 53009  53.2168 322.8967 0001671  37.3497 238.5162 15.20973565 13834,6881.04,94.676,504.055,501.755,0.0
53009.0,STARLINK-4277,PAYLOAD,2022-09-30 22:00:00,15.20391637,0.0001945,53.2173,321.7488,37.5723,167.6621,-0.0524669999999999,-0.01059876,0.0,0 STARLINK-4277,1 53009U 22076Z   22273.91667824 -.01059876  00000-0 -52467-1 0  9996,2 53009  53.2173 321.7488 0001945  37.5723 167.6621 15.20391637  1309,6882.795,94.712,505.999,503.322,0.0
53009.0,STARLINK-4277,PAYLOAD,2022-10-01 14:00:01,15.18874527,0.0001874,53.2171,318.7022,42.521,211.8313,-0.054938,-0.01061457,0.0,0 STARLINK-4277,1 53009U 22076Z   22274.58334491 -.01061457  00000-0 -54938-1 0  9994,2 53009  53.2171 318.7022 0001874  42.5210 211.8313 15.18874527  1306,6887.378000000002,94.807,510.534,507.952,0.0
53009.0,STARLINK-4277,PAYLOAD,2022-10-01 22:00:00,15.18112466,0.0001723,53.2174,317.177,38.8379,238.7093,-0.0560159999999999,-0.01072154,0.0,0 STARLINK-4277,1 53009U 22076Z   22274.91667824 -.01072154  00000-0 -56016-1 0  9995,2 53009  53.2174 317.1770 0001723  38.8379 238.7093 15.18112466 14022,6889.683000000001,94.855,512.735,510.36,0.0
53009.0,STARLINK-4277,PAYLOAD,2022-10-02 14:00:01,15.16636057,0.0001526,53.2169,314.1414,49.3937,271.775,-0.061886,-0.01130303,0.0,0 STARLINK-4277,1 53009U 22076Z   22275.58334491 -.01130303  00000-0 -61886-1 0  9992,2 53009  53.2169 314.1414 0001526  49.3937 271.7750 15.16636057  1305,6894.153,94.947,517.07,514.966,0.0
53009.0,STARLINK-4277,PAYLOAD,2022-10-02 22:00:00,15.15834418,0.0001409999999999,53.2174,312.6208,50.6515,290.994,-0.059841,-0.01072573,0.0,0 STARLINK-4277,1 53009U 22076Z   22275.91667824 -.01072573  00000-0 -59841-1 0  9990,2 53009  53.2174 312.6208 0001410  50.6515 290.9940 15.15834418 14177,6896.584,94.997,519.4209999999998,517.476,0.0
53009.0,STARLINK-4277,PAYLOAD,2022-10-03 14:00:01,15.14316188,0.0001450999999999,53.2172,309.5941,48.8793,330.9334,-0.062501,-0.01072826,0.0,0 STARLINK-4277,1 53009U 22076Z   22276.58334491 -.01072826  00000-0 -62501-1 0  9993,2 53009  53.2172 309.5941 0001451  48.8793 330.9334 15.14316188  1307,6901.191999999999,95.092,524.059,522.056,0.0
53009.0,STARLINK-4277,PAYLOAD,2022-10-03 22:00:00,15.13555428,0.0001506999999999,53.2174,308.0808,45.6363,351.8939,-0.063801,-0.01071893,0.0,0 STARLINK-4277,1 53009U 22076Z   22276.91667824 -.01071893  00000-0 -63801-1 0  9996,2 53009  53.2174 308.0808 0001507  45.6363 351.8939 15.13555428  1309,6903.505,95.14,526.41,524.3290000000002,0.0
53009.0,STARLINK-4277,PAYLOAD,2022-10-04 14:00:01,15.120775,0.0001624,53.2169,305.0666,38.272,31.9277,-0.070185,-0.01126633,0.0,0 STARLINK-4277,1 53009U 22076Z   22277.58334491 -.01126633  00000-0 -70185-1 0  9997,2 53009  53.2169 305.0666 0001624  38.2720  31.9277 15.12077500  1307,6908.002,95.233,530.989,528.745,0.0
53009.0,STARLINK-4277,PAYLOAD,2022-10-04 22:00:00,15.11275647,0.0001683,53.2174,303.5574,41.8919,43.3091,-0.067911,-0.01070367,0.0,0 STARLINK-4277,1 53009U 22076Z   22277.91667824 -.01070367  00000-0 -67911-1 0  9998,2 53009  53.2174 303.5574 0001683  41.8919  43.3091 15.11275647  1301,6910.446,95.284,533.474,531.148,0.0
53009.0,STARLINK-4277,PAYLOAD,2022-10-05 14:00:01,15.09661041,0.0001795,53.2172,300.5522,45.5971,66.8997,-0.0533419999999999,-0.00810773,0.0,0 STARLINK-4277,1 53009U 22076Z   22278.58335648 -.00810773  00000-0 -53342-1 0  9993,2 53009  53.2172 300.5522 0001795  45.5971  66.8997 15.09661041  1301,6915.371999999999,95.386,538.4780000000002,535.996,0.0
53009.0,STARLINK-4277,PAYLOAD,2022-10-05 22:00:00,15.08977698,0.0001614,53.2173,299.0527,52.9334,71.7444,-0.013854,-0.00215073,0.0,0 STARLINK-4277,1 53009U 22076Z   22278.91667824 -.00215073  00000-0 -13854-1 0  9990,2 53009  53.2173 299.0527 0001614  52.9334  71.7444 15.08977698  1303,6917.46,95.429,540.441,538.2080000000002,0.0
53009.0,STARLINK-4277,PAYLOAD,2022-10-06 06:00:00,15.08881141,0.0001455,53.2154,297.5663,45.0744,91.2345,-0.00063552,-0.00010399,0.0,0 STARLINK-4277,1 53009U 22076Z   22279.25001157 -.00010399  00000-0 -63552-3 0  9995,2 53009  53.2154 297.5663 0001455  45.0744  91.2345 15.08881141 14686,6917.755,95.435,540.626,538.613,0.0
53009.0,STARLINK-4277,PAYLOAD,2022-10-06 14:00:01,15.08886683,0.0001643,53.2148,296.0702,43.1572,104.7835,-0.00050705,-8.359e-05,0.0,0 STARLINK-4277,1 53009U 22076Z   22279.58334491 -.00008359  00000-0 -50705-3 0  9990,2 53009  53.2148 296.0702 0001643  43.1572 104.7835 15.08886683  1309,6917.738,95.435,540.739,538.466,0.0
53009.0,STARLINK-4277,PAYLOAD,2022-10-06 22:42:55,15.08838135,0.0001584,53.2146,294.4383,55.7651,265.7533,-0.0035239,-0.00055933,0.0,0 STARLINK-4277,1 53009U 22076Z   22279.94646991 -.00055933  00000-0 -35239-2 0  9995,2 53009  53.2146 294.4383 0001584  55.7651 265.7533 15.08838135  1307,6917.886,95.438,540.847,538.655,0.0
53009.0,STARLINK-4277,PAYLOAD,2022-10-07 06:00:00,15.08798448,0.0001705,53.2146,293.077,53.2765,117.9151,-0.0010609,-0.00017114,0.0,0 STARLINK-4277,1 53009U 22076Z   22280.25001157 -.00017114  00000-0 -10609-2 0  9993,2 53009  53.2146 293.0770 0001705  53.2765 117.9151 15.08798448 14834,6918.007,95.44,541.052,538.693,0.0
53009.0,STARLINK-4277,PAYLOAD,2022-10-07 14:00:01,15.08783787,0.000172,53.2141,291.5808,48.2757,134.4517,0.0041173,0.00065749,0.0,0 STARLINK-4277,1 53009U 22076Z   22280.58334491  .00065749  00000-0  41173-2 0  9994,2 53009  53.2141 291.5808 0001720  48.2757 134.4517 15.08783787  1304,6918.052,95.441,541.107,538.727,0.0
53009.0,STARLINK-4277,PAYLOAD,2022-10-07 22:00:00,15.08827739,0.0001578,53.2139,290.0828,55.4533,138.8361,0.00086126,0.00013441,0.0,0 STARLINK-4277,1 53009U 22076Z   22280.91667824  .00013441  00000-0  86126-3 0  9990,2 53009  53.2139 290.0828 0001578  55.4533 138.8361 15.08827739 14934,6917.918000000002,95.438,540.875,538.691,0.0
53009.0,STARLINK-4277,PAYLOAD,2022-10-08 14:00:01,15.08843088,0.0001817,53.2138,287.0912,51.2433,166.2161,0.00058159,8.981e-05,0.0,0 STARLINK-4277,1 53009U 22076Z   22281.58334491  .00008981  00000-0  58159-3 0  9993,2 53009  53.2138 287.0912 0001817  51.2433 166.2161 15.08843088  1307,6917.871,95.437,540.993,538.479,0.0
53009.0,STARLINK-4277,PAYLOAD,2022-10-08 22:00:00,15.08845814,0.0001673,53.2138,285.5929,57.9798,171.0839,0.0010284,0.00016119,0.0,0 STARLINK-4277,1 53009U 22076Z   22281.91667824  .00016119  00000-0  10284-2 0  9997,2 53009  53.2138 285.5929 0001673  57.9798 171.0839 15.08845814  1300,6917.863,95.437,540.885,538.57,0.0
53009.0,STARLINK-4277,PAYLOAD,2022-10-09 06:00:00,15.08847368,0.0001764999999999,53.2139,284.0979,53.3444,187.3346,-0.00022524,-3.872e-05,0.0,0 STARLINK-4277,1 53009U 22076Z   22282.25001157 -.00003872  00000-0 -22524-3 0  9991,2 53009  53.2139 284.0979 0001765  53.3444 187.3346 15.08847368 15135,6917.858,95.437,540.944,538.502,0.0
53009.0,STARLINK-4277,PAYLOAD,2022-10-09 14:00:01,15.08856963,0.0001713,53.214,282.6012,48.9948,203.2832,-0.0021557,-0.00034449,0.0,0 STARLINK-4277,1 53009U 22076Z   22282.58334491 -.00034449  00000-0 -21557-2 0  9995,2 53009  53.2140 282.6012 0001713  48.9948 203.2832 15.08856963  1304,6917.829000000002,95.436,540.879,538.509,0.0
53009.0,STARLINK-4277,PAYLOAD,2022-10-09 22:00:00,15.08833724,0.0001636999999999,53.2142,281.1031,56.5444,207.3373,0.00043802,6.689e-05,0.0,0 STARLINK-4277,1 53009U 22076Z   22282.91667824  .00006689  00000-0  43802-3 0  9992,2 53009  53.2142 281.1031 0001637  56.5444 207.3373 15.08833724  1307,6917.9,95.438,540.8969999999998,538.632,0.0
53009.0,STARLINK-4277,PAYLOAD,2022-10-10 08:00:01,15.08822285,0.0001911,53.2152,279.233,53.1781,315.1959,0.0012099,0.00019011,0.0,0 STARLINK-4277,1 53009U 22076Z   22283.33334491  .00019011  00000-0  12099-2 0  9996,2 53009  53.2152 279.2330 0001911  53.1781 315.1959 15.08822285 15291,6917.935,95.439,541.122,538.4780000000002,0.0
53009.0,STARLINK-4277,PAYLOAD,2022-10-10 14:00:01,15.08863521,0.0001835,53.2155,278.1081,50.9906,236.0635,-0.0048851999999999,-0.00077254,0.0,0 STARLINK-4277,1 53009U 22076Z   22283.58334491 -.00077254  00000-0 -48852-2 0  9994,2 53009  53.2155 278.1081 0001835  50.9906 236.0635 15.08863521  1301,6917.808000000001,95.436,540.943,538.404,0.0
53009.0,STARLINK-4277,PAYLOAD,2022-10-10 22:00:01,15.08857055,0.0001608,53.2159,276.60900000000004,55.0031,243.7256,-0.0052851,-0.00083466,0.0,0 STARLINK-4277,1 53009U 22076Z   22283.91668981 -.00083466  00000-0 -52851-2 0  9991,2 53009  53.2159 276.6090 0001608  55.0031 243.7256 15.08857055  1300,6917.828,95.436,540.806,538.581,0.0
53009.0,STARLINK-4277,PAYLOAD,2022-10-11 06:00:00,15.08821115,0.0001938,53.2155,275.1177,55.6523,254.5965,0.00021742,3.172e-05,0.0,0 STARLINK-4277,1 53009U 22076Z   22284.25001157  .00003172  00000-0  21742-3 0  9995,2 53009  53.2155 275.1177 0001938  55.6523 254.5965 15.08821115 15438,6917.938,95.439,541.144,538.462,0.0
53009.0,STARLINK-4277,PAYLOAD,2022-10-11 14:00:01,15.08800256,0.0001638,53.2165,273.6154,61.5142,260.3212,0.0034945999999999,0.00055708,0.0,0 STARLINK-4277,1 53009U 22076Z   22284.58334491  .00055708  00000-0  34946-2 0  9992,2 53009  53.2165 273.6154 0001638  61.5142 260.3212 15.08800256  1301,6918.002,95.44,541.0,538.734,0.0
53009.0,STARLINK-4277,PAYLOAD,2022-10-11 22:00:00,15.08831988,0.0001732,53.2156,272.1239,61.7893,271.6253,0.00065545,0.00010157,0.0,0 STARLINK-4277,1 53009U 22076Z   22284.91667824  .00010157  00000-0  65545-3 0  9997,2 53009  53.2156 272.1239 0001732  61.7893 271.6253 15.08831988  1305,6917.905,95.438,540.9680000000002,538.572,0.0
